NORAD_CAT_ID,OBJECT_NAME,OBJECT_TYPE,EPOCH,MEAN_MOTION,ECCENTRICITY,INCLINATION,RA_OF_ASC_NODE,ARG_OF_PERICENTER,MEAN_ANOMALY,BSTAR,MEAN_MOTION_DOT,MEAN_MOTION_DDOT,TLE_LINE0,TLE_LINE1,TLE_LINE2,SEMIMAJOR_AXIS,PERIOD,APOGEE,PERIGEE,DECAYED
52640.0,STARLINK-3977,PAYLOAD,2022-12-23 08:43:59,15.08832188,0.000285,53.2176,121.8882,43.5045,316.6172,8.1867e-05,1.014e-05,0.0,0 STARLINK-3977,1 52640U 22052AU  22357.36388336  .00001014  00000-0  81867-4 0  9997,2 52640  53.2176 121.8882 0002850  43.5045 316.6172 15.08832188 34523,6917.904,95.438,541.741,537.798,0.0
52640.0,STARLINK-3977,PAYLOAD,2022-12-23 18:16:18,15.08836535,0.0002835,53.2179,120.1034,45.7361,314.3863,9.0559e-05,1.153e-05,0.0,0 STARLINK-3977,1 52640U 22052AU  22357.76132111  .00001153  00000-0  90559-4 0  9991,2 52640  53.2179 120.1034 0002835  45.7361 314.3863 15.08836535 34202,6917.891,95.438,541.717,537.795,0.0
52640.0,STARLINK-3977,PAYLOAD,2022-12-24 08:34:45,15.08856229,0.0002826,53.2182,117.4268,47.1932,312.9297,-6.733e-05,-1.361e-05,0.0,0 STARLINK-3977,1 52640U 22052AU  22358.35747380 -.00001361  00000-0 -67330-4 0  9991,2 52640  53.2182 117.4268 0002826  47.1932 312.9297 15.08856229 34672,6917.831,95.437,541.651,537.741,0.0
52640.0,STARLINK-3977,PAYLOAD,2022-12-24 18:07:05,15.08844467,0.0002826,53.2182,115.6429,45.8087,314.3137,-0.00017396,-3.057e-05,0.0,0 STARLINK-3977,1 52640U 22052AU  22358.75492220 -.00003057  00000-0 -17396-3 0  9995,2 52640  53.2182 115.6429 0002826  45.8087 314.3137 15.08844467 34734,6917.8669999999975,95.437,541.687,537.7769999999998,0.0
52640.0,STARLINK-3977,PAYLOAD,2022-12-25 08:25:33,15.08830973,0.0002833999999999,53.2182,112.9668,44.662,315.46,6.694100000000001e-05,7.77e-06,0.0,0 STARLINK-3977,1 52640U 22052AU  22359.35108527  .00000777  00000-0  66941-4 0  9991,2 52640  53.2182 112.9668 0002834  44.6620 315.4600 15.08830973 34822,6917.908,95.438,541.734,537.812,0.0
52640.0,STARLINK-3977,PAYLOAD,2022-12-25 14:47:06,15.08832429,0.0002743,53.2188,111.7775,43.9372,316.1838,-2.8659e-05,-7.45e-06,0.0,0 STARLINK-3977,1 52640U 22052AU  22359.61604837 -.00000745  00000-0 -28659-4 0  9996,2 52640  53.2188 111.7775 0002743  43.9372 316.1838 15.08832429 34480,6917.904,95.438,541.6659999999998,537.871,0.0
52640.0,STARLINK-3977,PAYLOAD,2022-12-26 08:16:21,15.08830116,0.0002642,53.2193,108.5065,45.5963,314.5245,4.3499000000000005e-06,-2.19e-06,0.0,0 STARLINK-3977,1 52640U 22052AU  22360.34469052 -.00000219  00000-0  43499-5 0  9991,2 52640  53.2193 108.5065 0002642  45.5963 314.5245 15.08830116 34591,6917.911,95.438,541.6030000000002,537.948,0.0
52640.0,STARLINK-3977,PAYLOAD,2022-12-26 14:37:53,15.08833764,0.0002682,53.2196,107.3175,46.1421,313.9792,3.8397e-05,3.23e-06,0.0,0 STARLINK-3977,1 52640U 22052AU  22360.60964853  .00000323  00000-0  38397-4 0  9994,2 52640  53.2196 107.3175 0002682  46.1421 313.9792 15.08833764 35013,6917.899,95.438,541.62,537.909,0.0
52640.0,STARLINK-3977,PAYLOAD,2022-12-27 00:10:11,15.08844052,0.0002758,53.2189,105.5333,45.0628,315.0588,0.00011809,1.592e-05,0.0,0 STARLINK-3977,1 52640U 22052AU  22361.00708028  .00001592  00000-0  11809-3 0  9996,2 52640  53.2189 105.5333 0002758  45.0628 315.0588 15.08844052 35076,6917.868,95.437,541.641,537.825,0.0
52640.0,STARLINK-3977,PAYLOAD,2022-12-27 08:07:06,15.0884918,0.0002572,53.2194,104.0459,44.4126,315.7072,0.00018967,2.732e-05,0.0,0 STARLINK-3977,1 52640U 22052AU  22361.33827312  .00002732  00000-0  18967-3 0  9999,2 52640  53.2194 104.0459 0002572  44.4126 315.7072 15.08849180 34740,6917.852,95.437,541.497,537.938,0.0
52640.0,STARLINK-3977,PAYLOAD,2022-12-27 14:28:39,15.08848607,0.0002583999999999,53.2186,102.856,43.932,316.1878,0.00017026,2.423e-05,0.0,0 STARLINK-3977,1 52640U 22052AU  22361.60323378  .00002423  00000-0  17026-3 0  9994,2 52640  53.2186 102.8560 0002584  43.9320 316.1878 15.08848607 34789,6917.854,95.437,541.507,537.932,0.0
52640.0,STARLINK-3977,PAYLOAD,2022-12-28 15:54:50,15.08837324,0.0002722,53.2184,98.0978,40.4065,319.7129,3.4327e-05,2.58e-06,0.0,0 STARLINK-3977,1 52640U 22052AU  22362.66308352  .00000258  00000-0  34327-4 0  9994,2 52640  53.2184  98.0978 0002722  40.4065 319.7129 15.08837324 35321,6917.889,95.438,541.637,537.871,0.0
52640.0,STARLINK-3977,PAYLOAD,2022-12-29 06:13:18,15.08840035,0.0002678,53.2176,95.4217,42.6454,317.4745,-8.8575e-05,-1.698e-05,0.0,0 STARLINK-3977,1 52640U 22052AU  22363.25924480 -.00001698  00000-0 -88575-4 0  9991,2 52640  53.2176  95.4217 0002678  42.6454 317.4745 15.08840035 35035,6917.88,95.438,541.5980000000002,537.893,0.0
52640.0,STARLINK-3977,PAYLOAD,2022-12-29 15:45:38,15.08823193,0.0002525999999999,53.2201,93.6396,37.9575,322.1594,-0.00018471,-3.226e-05,0.0,0 STARLINK-3977,1 52640U 22052AU  22363.65670008 -.00003226  00000-0 -18471-3 0  9995,2 52640  53.2201  93.6396 0002526  37.9575 322.1594 15.08823193 35474,6917.932,95.439,541.544,538.049,0.0
52640.0,STARLINK-3977,PAYLOAD,2022-12-30 10:50:15,15.08833857,0.000252,53.22,90.0723,38.3568,321.7603,0.00010593,1.398e-05,0.0,0 STARLINK-3977,1 52640U 22052AU  22364.45156918  .00001398  00000-0  10593-3 0  9996,2 52640  53.2200  90.0723 0002520  38.3568 321.7603 15.08833857 35596,6917.899,95.438,541.507,538.021,0.0
52640.0,STARLINK-3977,PAYLOAD,2022-12-30 12:25:38,15.08837755,0.0002573,53.2192,89.7741,31.9922,328.1226,0.00014188,1.97e-05,0.0,0 STARLINK-3977,1 52640U 22052AU  22364.51780598  .00001970  00000-0  14188-3 0  9990,2 52640  53.2192  89.7741 0002573  31.9922 328.1226 15.08837755 35225,6917.887,95.438,541.5319999999998,537.972,0.0
52640.0,STARLINK-3977,PAYLOAD,2022-12-30 15:36:24,15.08841525,0.0002491,53.2196,89.1777,34.6768,325.4386,0.00017495,2.497e-05,0.0,0 STARLINK-3977,1 52640U 22052AU  22364.65028287  .00002497  00000-0  17495-3 0  9994,2 52640  53.2196  89.1777 0002491  34.6768 325.4386 15.08841525 35620,6917.876,95.437,541.464,538.0169999999998,0.0
52640.0,STARLINK-3977,PAYLOAD,2022-12-31 09:05:37,15.08850704,0.0002524,53.219,85.9081,31.4613,328.6529,0.0004378,6.688e-05,0.0,0 STARLINK-3977,1 52640U 22052AU  22365.37890942  .00006688  00000-0  43780-3 0  9991,2 52640  53.2190  85.9081 0002524  31.4613 328.6529 15.08850704 35732,6917.848000000001,95.437,541.4590000000002,537.967,0.0
52640.0,STARLINK-3977,PAYLOAD,2022-12-31 13:51:47,15.08848017,0.0002638999999999,53.2192,85.0166,16.7567,343.3512,0.00028975,4.327e-05,0.0,0 STARLINK-3977,1 52640U 22052AU  22365.57763310  .00004327  00000-0  28975-3 0  9998,2 52640  53.2192  85.0166 0002639  16.7567 343.3512 15.08848017 35381,6917.856,95.437,541.547,537.895,0.0
52640.0,STARLINK-3977,PAYLOAD,2022-12-31 15:27:10,15.08850877,0.0002591,53.219,84.7194,27.5389,332.574,0.00024003,3.535e-05,0.0,0 STARLINK-3977,1 52640U 22052AU  22365.64387290  .00003535  00000-0  24003-3 0  9993,2 52640  53.2190  84.7194 0002591  27.5389 332.5740 15.08850877 35396,6917.847,95.437,541.505,537.92,0.0
52640.0,STARLINK-3977,PAYLOAD,2023-01-01 04:10:17,15.08831666,0.0002315,53.2188,82.3392,23.9297,336.1803,5.6955e-05,6.18e-06,0.0,0 STARLINK-3977,1 52640U 22052AU  23001.17381037  .00000618  00000-0  56955-4 0  9993,2 52640  53.2188  82.3392 0002315  23.9297 336.1803 15.08831666 35855,6917.906,95.438,541.372,538.169,0.0
52640.0,STARLINK-3977,PAYLOAD,2023-01-01 08:56:28,15.08819961,0.0002555,53.2188,81.4494,21.2702,338.8396,-0.00028792,-4.865e-05,0.0,0 STARLINK-3977,1 52640U 22052AU  23001.37254940 -.00004865  00000-0 -28792-3 0  9994,2 52640  53.2188  81.4494 0002555  21.2702 338.8396 15.08819961 35889,6917.941999999999,95.439,541.5740000000002,538.039,0.0
52640.0,STARLINK-3977,PAYLOAD,2023-01-01 13:42:37,15.08823196,0.0002118,53.2186,80.5531,25.3768,334.7328,-0.00015813,-2.803e-05,0.0,0 STARLINK-3977,1 52640U 22052AU  23001.57126460 -.00002803  00000-0 -15813-3 0  9991,2 52640  53.2186  80.5531 0002118  25.3768 334.7328 15.08823196 35538,6917.932,95.439,541.262,538.332,0.0
52640.0,STARLINK-3977,PAYLOAD,2023-01-01 21:39:33,15.08828127,0.0002508,53.219,79.0699,24.058000000000003,336.0529,-0.00019194,-3.341e-05,0.0,0 STARLINK-3977,1 52640U 22052AU  23001.90246556 -.00003341  00000-0 -19194-3 0  9991,2 52640  53.2190  79.0699 0002508  24.0580 336.0529 15.08828127 35584,6917.917,95.438,541.5169999999998,538.047,0.0
52640.0,STARLINK-3977,PAYLOAD,2023-01-02 11:58:00,15.08832352,0.0002585,53.2181,76.3933,21.0773,339.0326,-4.3504e-05,-9.81e-06,0.0,0 STARLINK-3977,1 52640U 22052AU  23002.49861698 -.00000981  00000-0 -43504-4 0  9996,2 52640  53.2181  76.3933 0002585  21.0773 339.0326 15.08832352 36057,6917.904,95.438,541.557,537.98,0.0
52640.0,STARLINK-3977,PAYLOAD,2023-01-02 13:33:23,15.08834805,0.0002604,53.2183,76.0959,22.1973,337.9131,1.1356e-05,-1.08e-06,0.0,0 STARLINK-3977,1 52640U 22052AU  23002.56485655 -.00000108  00000-0  11356-4 0  9999,2 52640  53.2183  76.0959 0002604  22.1973 337.9131 15.08834805 35684,6917.896,95.438,541.563,537.96,0.0
52640.0,STARLINK-3977,PAYLOAD,2023-01-02 21:30:19,15.08842072,0.0002573999999999,53.2187,74.609,22.4261,337.6843,0.0004331,6.612e-05,0.0,0 STARLINK-3977,1 52640U 22052AU  23002.89605812  .00006612  00000-0  43310-3 0  9993,2 52640  53.2187  74.6090 0002574  22.4261 337.6843 15.08842072 35735,6917.874,95.437,541.52,537.9580000000002,0.0
52640.0,STARLINK-3977,PAYLOAD,2023-01-03 05:27:15,15.08832018,0.0002549999999999,53.2197,73.1228,25.155,334.9566,0.00039811,6.052e-05,0.0,0 STARLINK-3977,1 52640U 22052AU  23003.22726633  .00006052  00000-0  39811-3 0  9995,2 52640  53.2197  73.1228 0002550  25.1550 334.9566 15.08832018 35784,6917.905,95.438,541.534,538.006,0.0
52640.0,STARLINK-3977,PAYLOAD,2023-01-03 16:34:57,15.08839456,0.00025,53.2188,71.0407,27.7121,332.4004,0.00029182,4.359e-05,0.0,0 STARLINK-3977,1 52640U 22052AU  23003.69094448  .00004359  00000-0  29182-3 0  9996,2 52640  53.2188  71.0407 0002500  27.7121 332.4004 15.08839456 36231,6917.882,95.438,541.477,538.018,0.0
